     2.100          NAVIGATION                              RINEX VERSION / TYPE
fic2rin                                 12/21/2017 00:07:52 PGM / RUN BY / DATE
                                                            END OF HEADER
24 17 12 20  6  0  0.0 -.436864793301D-04 -.454747350886D-12  .000000000000D+00
     .370000000000D+02  .531562500000D+02  .466733727047D-08  .596845776954D+00
     .274553894997D-05  .651886942796D-02  .104513019323D-04  .515366936684D+04
     .280800000000D+06  .260770320892D-07 -.305171093315D+01  .856816768646D-07
     .943640464264D+00  .169843750000D+03  .490398886511D+00 -.801533387083D-08
    -.400730977768D-09  .100000000000D+01  .198000000000D+04  .000000000000D+00
     .240000000000D+01  .000000000000D+00  .279396772385D-08  .370000000000D+02
     .273606000000D+06  .400000000000D+01
25 17 12 20  6  0  0.0 -.508665107191D-03 -.625277607469D-11  .000000000000D+00
     .900000000000D+02  .117406250000D+03  .428374986395D-08 -.137204971714D+01
     .611133873463D-05  .684145744890D-02  .440888106823D-05  .515371246719D+04
     .280800000000D+06  .195577740669D-06 -.196372259675D+01 -.931322574615D-08
     .975568231487D+00  .302968750000D+03  .803152397607D+00 -.805426406386D-08
     .322870591713D-09  .100000000000D+01  .198000000000D+04  .000000000000D+00
     .240000000000D+01  .000000000000D+00  .558793544769D-08  .900000000000D+02
     .273606000000D+06  .400000000000D+01
28 17 12 20  6  0  0.0  .672526191920D-03  .318323145621D-11  .000000000000D+00
     .560000000000D+02  .109468750000D+03  .394302138552D-08 -.288038302902D+01
     .560842454433D-05  .199811160564D-01  .329129397869D-05  .515367150116D+04
     .280800000000D+06  .296160578728D-06 -.188261962534D+01  .158324837685D-06
     .987046292589D+00  .327187500000D+03 -.153990095842D+01 -.764353266953D-08
     .331442377334D-09  .100000000000D+01  .198000000000D+04  .000000000000D+00
     .240000000000D+01  .000000000000D+00 -.111758708954D-07  .560000000000D+02
     .273606000000D+06  .400000000000D+01
29 17 12 20  6  0  0.0  .522757414728D-03 -.534328137292D-11  .000000000000D+00
     .870000000000D+02 -.801562500000D+02  .431589406003D-08 -.245584611007D+01
    -.401027500629D-05  .412181485444D-03  .210292637348D-05  .515376152039D+04
     .280800000000D+06  .335276126862D-07 -.860027990018D+00 -.372529029846D-08
     .982829551184D+00  .350625000000D+03  .867345877832D+00 -.820284168128D-08
    -.209294432239D-09  .100000000000D+01  .198000000000D+04  .000000000000D+00
     .240000000000D+01  .000000000000D+00 -.102445483208D-07  .870000000000D+02
     .273606000000D+06  .400000000000D+01
30 17 12 20  6  0  0.0  .119380652905D-03 -.295585778076D-11  .000000000000D+00
     .280000000000D+02  .563750000000D+02  .451340228704D-08 -.268695980563D+00
     .296905636787D-05  .300342612900D-02  .102762132883D-04  .515359923553D+04
     .280800000000D+06  .335276126862D-07 -.295885351446D+01  .484287738800D-07
     .946261586290D+00  .173687500000D+03 -.307809393364D+01 -.797426073140D-08
    -.236438420038D-09  .100000000000D+01  .198000000000D+04  .000000000000D+00
     .240000000000D+01  .000000000000D+00  .372529029846D-08  .280000000000D+02
     .273606000000D+06  .400000000000D+01
31 17 12 20  6  0  0.0  .154299195856D-03 -.250111042988D-11  .000000000000D+00
     .350000000000D+02  .514375000000D+02  .415553023737D-08 -.558843618377D+00
     .262074172497D-05  .882407999597D-02  .106357038021D-04  .515358144188D+04
     .280800000000D+06  .800937414169D-07 -.298291941656D+01 -.162050127983D-06
     .965301307097D+00  .172125000000D+03 -.195263375378D+00 -.780103923031D-08
    -.261796619166D-09  .100000000000D+01  .198000000000D+04  .000000000000D+00
     .240000000000D+01  .000000000000D+00 -.135041773319D-07  .350000000000D+02
     .273606000000D+06  .400000000000D+01
19 17 12 20  5 59 44.0 -.468868762255D-03  .227373675443D-11  .000000000000D+00
     .290000000000D+02 -.844375000000D+02  .435089551798D-08 -.826443731396D+00
    -.416859984398D-05  .976264942437D-02  .291690230370D-05  .515369050980D+04
     .280784000000D+06 -.484287738800D-07 -.823058698418D+00  .154599547386D-06
     .979051265346D+00  .332875000000D+03  .110484844240D+01 -.825462955274D-08
    -.225366530278D-09  .100000000000D+01  .198000000000D+04  .000000000000D+00
     .240000000000D+01  .000000000000D+00 -.153668224812D-07  .290000000000D+02
     .275076000000D+06  .400000000000D+01
16 17 12 20  5 59 44.0  .352268107235D-04 -.454747350886D-12  .000000000000D+00
     .360000000000D+02  .106843750000D+03  .399659504565D-08 -.287970998869D+01
     .541470944881D-05  .958468462341D-02  .445172190666D-05  .515355557632D+04
     .280784000000D+06 -.117346644402D-06 -.188699120931D+01 -.171363353729D-06
     .988209337331D+00  .310656250000D+03  .450087315715D+00 -.781782564382D-08
     .316084594764D-09  .100000000000D+01  .198000000000D+04  .000000000000D+00
     .240000000000D+01  .000000000000D+00 -.107102096081D-07  .360000000000D+02
     .277206000000D+06  .400000000000D+01
18 17 12 20  5 59 44.0  .633507966995D-03  .113686837722D-12  .000000000000D+00
     .330000000000D+02  .175312500000D+02  .520057376763D-08 -.227246282177D+01
     .901520252228D-06  .182568787131D-01  .775605440140D-05  .515363980293D+04
     .280784000000D+06  .292435288429D-06  .112223016354D+01 -.260770320892D-07
     .925970994454D+00  .208781250000D+03 -.176566752017D+01 -.791318675885D-08
     .576095425258D-09  .100000000000D+01  .198000000000D+04  .000000000000D+00
     .240000000000D+01  .000000000000D+00 -.111758708954D-07  .330000000000D+02
     .277206000000D+06  .400000000000D+01
16 17 12 20  7 59 44.0  .352230854332D-04 -.454747350886D-12  .000000000000D+00
     .380000000000D+02  .108906250000D+03  .396909390012D-08 -.182948166281D+01
     .536069273949D-05  .958459544927D-02  .410340726376D-05  .515355542564D+04
     .287984000000D+06  .614672899246D-07 -.188704851912D+01 -.137835741043D-06
     .988211941325D+00  .313000000000D+03  .450108472436D+00 -.788854287519D-08
     .439304013061D-09  .100000000000D+01  .198000000000D+04  .000000000000D+00
     .240000000000D+01  .000000000000D+00 -.107102096081D-07  .380000000000D+02
     .280806000000D+06  .400000000000D+01
18 17 12 20  7 59 44.0  .633508432657D-03  .113686837722D-12  .000000000000D+00
     .340000000000D+02  .221875000000D+02  .549594321381D-08 -.122227468371D+01
     .135600566864D-05  .182571650948D-01  .798702239990D-05  .515363903809D+04
     .287984000000D+06 -.447034835815D-07  .112217269865D+01  .514090061188D-06
     .925972028737D+00  .209312500000D+03 -.176564857099D+01 -.851856911831D-08
     .409302763389D-09  .100000000000D+01  .198000000000D+04  .000000000000D+00
     .240000000000D+01  .000000000000D+00 -.111758708954D-07  .340000000000D+02
     .280806000000D+06  .400000000000D+01
19 17 12 20  7 59 44.0 -.468852464110D-03  .227373675443D-11  .000000000000D+00
     .300000000000D+02 -.762500000000D+02  .430267922386D-08  .223777440817D+00
    -.389665365219D-05  .976368226111D-02  .284425914288D-05  .515369268608D+04
     .287984000000D+06 -.912696123123D-07 -.823118467400D+00  .707805156708D-07
     .979049577139D+00  .335343750000D+03  .110479567787D+01 -.829355974577D-08
    -.222152110670D-09  .100000000000D+01  .198000000000D+04  .000000000000D+00
     .240000000000D+01  .000000000000D+00 -.153668224812D-07  .300000000000D+02
     .280806000000D+06  .400000000000D+01
 1 17 12 20  8  0  0.0 -.180653296411D-04 -.261479726760D-11  .000000000000D+00
     .900000000000D+02 -.101625000000D+03  .414231540121D-08  .136420014199D+01
    -.515952706337D-05  .717455241829D-02  .982172787189D-05  .515368339539D+04
     .288000000000D+06 -.633299350739D-07  .132941217535D+00  .115483999252D-06
     .969956865408D+00  .196031250000D+03  .625748748924D+00 -.781675417062D-08
    -.264296723305D-10  .100000000000D+01  .198000000000D+04  .000000000000D+00
     .240000000000D+01  .000000000000D+00  .558793544769D-08  .900000000000D+02
     .280806000000D+06  .400000000000D+01
 2 17 12 20  8  0  0.0  .250609591603D-03 -.100044417195D-10  .000000000000D+00
     .280000000000D+02 -.109687500000D+03  .443768484739D-08  .178339507807D+01
    -.599026679993D-05  .174886060413D-01  .975281000137D-05  .515365420723D+04
     .288000000000D+06 -.152736902237D-06  .751902763882D-01 -.439584255219D-06
     .948971908283D+00  .189093750000D+03 -.192597865345D+01 -.790247202682D-08
     .167864135072D-10  .100000000000D+01  .198000000000D+04  .000000000000D+00
     .240000000000D+01  .000000000000D+00 -.204890966415D-07  .280000000000D+02
     .280806000000D+06  .400000000000D+01
 3 17 12 20  8  0  0.0 -.241119414568D-04  .625277607469D-11  .000000000000D+00
     .320000000000D+02  .103125000000D+02  .466805158594D-08  .310831529324D+00
     .514090061188D-06  .115058536176D-02  .791437923908D-05  .515359136009D+04
     .288000000000D+06  .279396772385D-07  .117533845955D+01  .745058059692D-08
     .960109387427D+00  .225250000000D+03  .591416456401D+00 -.794890253227D-08
     .435375277985D-09  .100000000000D+01  .198000000000D+04  .000000000000D+00
     .240000000000D+01  .000000000000D+00  .232830643654D-08  .320000000000D+02
     .280806000000D+06  .400000000000D+01
 4 17 12 20  8  0  0.0  .277846120298D-04  .193267624127D-11  .000000000000D+00
     .580000000000D+02  .115343750000D+03  .536379485216D-08 -.150373647949D+01
     .599958002567D-05  .926966487896D-02  .427290797234D-05  .515366196442D+04
     .288000000000D+06  .230967998505D-06 -.193955684903D+01 -.260770320892D-07
     .980367423484D+00  .304906250000D+03  .893896364886D+00 -.796176021070D-08
     .336085427879D-09  .100000000000D+01  .198000000000D+04  .000000000000D+00
     .240000000000D+01  .630000000000D+02 -.195577740669D-07  .580000000000D+02
     .280806000000D+06  .400000000000D+01
